STARLINK-2443           
1 48107U 21027R   25256.65961801  .00003333  00000+0  24253-3 0  9998
2 48107  53.0523 226.3376 0001443 100.3279 259.7872 15.06402686246014
STARLINK-2448           
1 48111U 21027V   25257.21158145  .00005037  00000+0  35665-3 0  9997
2 48111  53.0535 233.8301 0001504  87.4814 272.6348 15.06418053245961
STARLINK-2449           
1 48112U 21027W   25257.27102957  .00001723  00000+0  13452-3 0  9992
2 48112  53.0539 248.7600 0001411  82.8937 277.2213 15.06396615245753
STARLINK-2450           
1 48113U 21027X   25257.00793179  .00000080  00000+0  24257-4 0  9997
2 48113  53.0520 244.7758 0001497  87.4810 272.6350 15.06407128245774
STARLINK-2452           
1 48115U 21027Z   25257.19683548  .00000593  00000+0  58685-4 0  9998
2 48115  53.0533 233.9327 0001380  91.7984 268.3163 15.06397362245955
STARLINK-2454           
1 48116U 21027AA  25256.67250680 -.00001887  00000+0 -10782-3 0  9992
2 48116  53.0566 246.2798 0001300  95.3445 264.7692 15.06395149245739
STARLINK-2455           
1 48117U 21027AB  25257.17469071  .00000344  00000+0  42022-4 0  9993
2 48117  53.0545 224.0130 0001475  92.8620 267.2537 15.06398058246099
STARLINK-2459           
1 48119U 21027AD  25257.18206227  .00001289  00000+0  10540-3 0  9996
2 48119  53.0542 223.9817 0001351  79.1324 280.9817 15.06403457246082
STARLINK-2460           
1 48120U 21027AE  25257.25488193  .00000322  00000+0  40479-4 0  9992
2 48120  53.0526 243.6662 0001385  88.2684 271.8463 15.06400401245834
STARLINK-2462           
1 48121U 21027AF  25257.22631622  .00000465  00000+0  50085-4 0  9999
2 48121  53.0506 233.7955 0001413  84.7522 275.3628 15.06397995245950
STARLINK-2464           
1 48123U 21027AH  25257.16826464  .00000965  00000+0  83646-4 0  9998
2 48123  53.0540 224.0526 0001333  91.9764 268.1377 15.06399852246097
STARLINK-2465           
1 48124U 21027AJ  25257.23369360  .00000390  00000+0  45054-4 0  9997
2 48124  53.0554 233.7634 0001227  85.3286 274.7844 15.06396162245955
STARLINK-2466           
1 48125U 21027AK  25257.24756094 -.00003044  00000+0 -18566-3 0  9991
2 48125  53.0545 243.9409 0001050 107.8000 252.3103 15.06373534245821
STARLINK-2467           
1 48126U 21027AL  25257.20141882  .00003222  00000+0  23497-3 0  9996
2 48126  53.0533 223.9081 0001431  90.6926 269.4227 15.06424376246101
STARLINK-2468           
1 48127U 21027AM  25256.99318781  .00000832  00000+0  74767-4 0  9997
2 48127  53.0528 244.8429 0001251  78.2781 281.8348 15.06401160245786
STARLINK-2469           
1 48128U 21027AN  25257.17288318  .00000141  00000+0  28360-4 0  9992
2 48128  53.0527 174.1200 0001732  83.0153 277.1033 15.06405104246781
