[{"OBJECT_NAME":"STARLINK-2443","OBJECT_ID":"2021-027R","EPOCH":"2025-09-13T15:49:50.996064","MEAN_MOTION":15.06402686,"ECCENTRICITY":0.00014434,"INCLINATION":53.0523,"RA_OF_ASC_NODE":226.3376,"ARG_OF_PERICENTER":100.3279,"MEAN_ANOMALY":259.7872,"EPHEMERIS_TYPE":0,"CLASSIFICATION_TYPE":"U","NORAD_CAT_ID":48107,"ELEMENT_SET_NO":999,"REV_AT_EPOCH":24601,"BSTAR":0.00024253269,"MEAN_MOTION_DOT":3.333e-5,"MEAN_MOTION_DDOT":0},{"OBJECT_NAME":"STARLINK-2448","OBJECT_ID":"2021-027V","EPOCH":"2025-09-14T05:04:40.637280","MEAN_MOTION":15.06418053,"ECCENTRICITY":0.00015049,"INCLINATION":53.0535,"RA_OF_ASC_NODE":233.8301,"ARG_OF_PERICENTER":87.4814,"MEAN_ANOMALY":272.6348,"EPHEMERIS_TYPE":0,"CLASSIFICATION_TYPE":"U","NORAD_CAT_ID":48111,"ELEMENT_SET_NO":999,"REV_AT_EPOCH":24596,"BSTAR":0.00035665235,"MEAN_MOTION_DOT":5.037e-5,"MEAN_MOTION_DDOT":0},{"OBJECT_NAME":"STARLINK-2449","OBJECT_ID":"2021-027W","EPOCH":"2025-09-14T06:30:16.954848","MEAN_MOTION":15.06396615,"ECCENTRICITY":0.00014116,"INCLINATION":53.0539,"RA_OF_ASC_NODE":248.76,"ARG_OF_PERICENTER":82.8937,"MEAN_ANOMALY":277.2213,"EPHEMERIS_TYPE":0,"CLASSIFICATION_TYPE":"U","NORAD_CAT_ID":48112,"ELEMENT_SET_NO":999,"REV_AT_EPOCH":24575,"BSTAR":0.00013451912,"MEAN_MOTION_DOT":1.723e-5,"MEAN_MOTION_DDOT":0},{"OBJECT_NAME":"STARLINK-2450","OBJECT_ID":"2021-027X","EPOCH":"2025-09-14T00:11:25.306656","MEAN_MOTION":15.06407128,"ECCENTRICITY":0.00014973,"INCLINATION":53.052,"RA_OF_ASC_NODE":244.7758,"ARG_OF_PERICENTER":87.481,"MEAN_ANOMALY":272.635,"EPHEMERIS_TYPE":0,"CLASSIFICATION_TYPE":"U","NORAD_CAT_ID":48113,"ELEMENT_SET_NO":999,"REV_AT_EPOCH":24577,"BSTAR":2.4257139e-5,"MEAN_MOTION_DOT":8.0e-7,"MEAN_MOTION_DDOT":0},{"OBJECT_NAME":"STARLINK-2452","OBJECT_ID":"2021-027Z","EPOCH":"2025-09-14T04:43:26.585472","MEAN_MOTION":15.06397362,"ECCENTRICITY":0.00013806,"INCLINATION":53.0533,"RA_OF_ASC_NODE":233.9327,"ARG_OF_PERICENTER":91.7984,"MEAN_ANOMALY":268.3163,"EPHEMERIS_TYPE":0,"CLASSIFICATION_TYPE":"U","NORAD_CAT_ID":48115,"ELEMENT_SET_NO":999,"REV_AT_EPOCH":24595,"BSTAR":5.8685422e-5,"MEAN_MOTION_DOT":5.93e-6,"MEAN_MOTION_DDOT":0},{"OBJECT_NAME":"STARLINK-2454","OBJECT_ID":"2021-027AA","EPOCH":"2025-09-13T16:08:24.587520","MEAN_MOTION":15.06395149,"ECCENTRICITY":0.00013004,"INCLINATION":53.0566,"RA_OF_ASC_NODE":246.2798,"ARG_OF_PERICENTER":95.3445,"MEAN_ANOMALY":264.7692,"EPHEMERIS_TYPE":0,"CLASSIFICATION_TYPE":"U","NORAD_CAT_ID":48116,"ELEMENT_SET_NO":999,"REV_AT_EPOCH":24573,"BSTAR":-0.00010782168,"MEAN_MOTION_DOT":-1.887e-5,"MEAN_MOTION_DDOT":0},{"OBJECT_NAME":"STARLINK-2455","OBJECT_ID":"2021-027AB","EPOCH":"2025-09-14T04:11:33.277344","MEAN_MOTION":15.06398058,"ECCENTRICITY":0.00014752,"INCLINATION":53.0545,"RA_OF_ASC_NODE":224.013,"ARG_OF_PERICENTER":92.862,"MEAN_ANOMALY":267.2537,"EPHEMERIS_TYPE":0,"CLASSIFICATION_TYPE":"U","NORAD_CAT_ID":48117,"ELEMENT_SET_NO":999,"REV_AT_EPOCH":24609,"BSTAR":4.2022317e-5,"MEAN_MOTION_DOT":3.44e-6,"MEAN_MOTION_DDOT":0},{"OBJECT_NAME":"STARLINK-2459","OBJECT_ID":"2021-027AD","EPOCH":"2025-09-14T04:22:10.180128","MEAN_MOTION":15.06403457,"ECCENTRICITY":0.00013513,"INCLINATION":53.0542,"RA_OF_ASC_NODE":223.9817,"ARG_OF_PERICENTER":79.1324,"MEAN_ANOMALY":280.9817,"EPHEMERIS_TYPE":0,"CLASSIFICATION_TYPE":"U","NORAD_CAT_ID":48119,"ELEMENT_SET_NO":999,"REV_AT_EPOCH":24608,"BSTAR":0.00010539813,"MEAN_MOTION_DOT":1.289e-5,"MEAN_MOTION_DDOT":0},{"OBJECT_NAME":"STARLINK-2460","OBJECT_ID":"2021-027AE","EPOCH":"2025-09-14T06:07:01.798752","MEAN_MOTION":15.06400401,"ECCENTRICITY":0.0001385,"INCLINATION":53.0526,"RA_OF_ASC_NODE":243.6662,"ARG_OF_PERICENTER":88.2684,"MEAN_ANOMALY":271.8463,"EPHEMERIS_TYPE":0,"CLASSIFICATION_TYPE":"U","NORAD_CAT_ID":48120,"ELEMENT_SET_NO":999,"REV_AT_EPOCH":24583,"BSTAR":4.0478838e-5,"MEAN_MOTION_DOT":3.22e-6,"MEAN_MOTION_DDOT":0},{"OBJECT_NAME":"STARLINK-2462","OBJECT_ID":"2021-027AF","EPOCH":"2025-09-14T05:25:53.721408","MEAN_MOTION":15.06397995,"ECCENTRICITY":0.00014139,"INCLINATION":53.0506,"RA_OF_ASC_NODE":233.7955,"ARG_OF_PERICENTER":84.7522,"MEAN_ANOMALY":275.3628,"EPHEMERIS_TYPE":0,"CLASSIFICATION_TYPE":"U","NORAD_CAT_ID":48121,"ELEMENT_SET_NO":999,"REV_AT_EPOCH":24595,"BSTAR":5.0085293e-5,"MEAN_MOTION_DOT":4.65e-6,"MEAN_MOTION_DDOT":0},{"OBJECT_NAME":"STARLINK-2464","OBJECT_ID":"2021-027AH","EPOCH":"2025-09-14T04:02:18.064896","MEAN_MOTION":15.06399852,"ECCENTRICITY":0.00013333,"INCLINATION":53.054,"RA_OF_ASC_NODE":224.0526,"ARG_OF_PERICENTER":91.9764,"MEAN_ANOMALY":268.1377,"EPHEMERIS_TYPE":0,"CLASSIFICATION_TYPE":"U","NORAD_CAT_ID":48123,"ELEMENT_SET_NO":999,"REV_AT_EPOCH":24609,"BSTAR":8.3645948e-5,"MEAN_MOTION_DOT":9.65e-6,"MEAN_MOTION_DDOT":0},{"OBJECT_NAME":"STARLINK-2465","OBJECT_ID":"2021-027AJ","EPOCH":"2025-09-14T05:36:31.127040","MEAN_MOTION":15.06396162,"ECCENTRICITY":0.00012279,"INCLINATION":53.0554,"RA_OF_ASC_NODE":233.7634,"ARG_OF_PERICENTER":85.3286,"MEAN_ANOMALY":274.7844,"EPHEMERIS_TYPE":0,"CLASSIFICATION_TYPE":"U","NORAD_CAT_ID":48124,"ELEMENT_SET_NO":999,"REV_AT_EPOCH":24595,"BSTAR":4.5054172e-5,"MEAN_MOTION_DOT":3.9e-6,"MEAN_MOTION_DDOT":0},{"OBJECT_NAME":"STARLINK-2466","OBJECT_ID":"2021-027AK","EPOCH":"2025-09-14T05:56:29.265216","MEAN_MOTION":15.06373534,"ECCENTRICITY":0.00010505,"INCLINATION":53.0545,"RA_OF_ASC_NODE":243.9409,"ARG_OF_PERICENTER":107.8,"MEAN_ANOMALY":252.3103,"EPHEMERIS_TYPE":0,"CLASSIFICATION_TYPE":"U","NORAD_CAT_ID":48125,"ELEMENT_SET_NO":999,"REV_AT_EPOCH":24582,"BSTAR":-0.00018566229,"MEAN_MOTION_DOT":-3.044e-5,"MEAN_MOTION_DDOT":0},{"OBJECT_NAME":"STARLINK-2467","OBJECT_ID":"2021-027AL","EPOCH":"2025-09-14T04:50:02.586048","MEAN_MOTION":15.06424376,"ECCENTRICITY":0.00014317,"INCLINATION":53.0533,"RA_OF_ASC_NODE":223.9081,"ARG_OF_PERICENTER":90.6926,"MEAN_ANOMALY":269.4227,"EPHEMERIS_TYPE":0,"CLASSIFICATION_TYPE":"U","NORAD_CAT_ID":48126,"ELEMENT_SET_NO":999,"REV_AT_EPOCH":24610,"BSTAR":0.00023497033,"MEAN_MOTION_DOT":3.222e-5,"MEAN_MOTION_DDOT":0},{"OBJECT_NAME":"STARLINK-2468","OBJECT_ID":"2021-027AM","EPOCH":"2025-09-13T23:50:11.426784","MEAN_MOTION":15.0640116,"ECCENTRICITY":0.00012515,"INCLINATION":53.0528,"RA_OF_ASC_NODE":244.8429,"ARG_OF_PERICENTER":78.2781,"MEAN_ANOMALY":281.8348,"EPHEMERIS_TYPE":0,"CLASSIFICATION_TYPE":"U","NORAD_CAT_ID":48127,"ELEMENT_SET_NO":999,"REV_AT_EPOCH":24578,"BSTAR":7.4767034e-5,"MEAN_MOTION_DOT":8.32e-6,"MEAN_MOTION_DDOT":0},{"OBJECT_NAME":"STARLINK-2469","OBJECT_ID":"2021-027AN","EPOCH":"2025-09-14T04:08:57.106752","MEAN_MOTION":15.06405104,"ECCENTRICITY":0.00017326,"INCLINATION":53.0527,"RA_OF_ASC_NODE":174.12,"ARG_OF_PERICENTER":83.0153,"MEAN_ANOMALY":277.1033,"EPHEMERIS_TYPE":0,"CLASSIFICATION_TYPE":"U","NORAD_CAT_ID":48128,"ELEMENT_SET_NO":999,"REV_AT_EPOCH":24678,"BSTAR":2.8359764e-5,"MEAN_MOTION_DOT":1.41e-6,"MEAN_MOTION_DDOT":0}]
